OBJECT_NAME,OBJECT_ID,EPOCH,MEAN_MOTION,ECCENTRICITY,INCLINATION,RA_OF_ASC_NODE,ARG_OF_PERICENTER,MEAN_ANOMALY,EPHEMERIS_TYPE,CLASSIFICATION_TYPE,NORAD_CAT_ID,ELEMENT_SET_NO,REV_AT_EPOCH,BSTAR,MEAN_MOTION_DOT,MEAN_MOTION_DDOT
SAUDISAT 1C (SO-50),2002-058C,2026-07-15T00:06:13.953024,14.83098196,.00745369,64.5518,42.9159,257.3021,101.9746,0,U,27607,999,26858,.62403941E-4,.376E-5,0
SAUDISAT 2,2004-025F,2026-07-15T12:50:14.475264,14.56698381,.0024085,98.5520,197.2509,207.1129,152.8812,0,U,28371,999,16987,.32915896E-4,.98E-6,0
SAUDISAT 3,2007-012B,2026-07-15T09:52:30.352224,14.71440366,.00156118,98.1467,146.8329,134.0727,226.1768,0,U,31118,999,3189,.23165385E-4,.93E-6,0
PISAT,2016-059B,2026-07-15T13:08:47.051520,14.69030179,.00304624,97.8191,195.7835,113.7528,246.6878,0,U,41784,999,52390,.85628989E-4,.459E-5,0
FLYING LAPTOP,2017-042G,2026-07-15T13:55:09.280992,15.01314628,.00196884,97.4803,351.0446,31.3072,328.9321,0,U,42831,999,49071,.16176772E-3,.2032E-4,0
SALSAT,2020-068K,2026-07-15T11:08:34.478880,15.30174422,.00092137,97.8855,201.2595,191.9024,168.1999,0,U,46495,999,31968,.14152956E-3,.4051E-4,0
